CCSDS_OMM_VERS = 2.0
CREATION_DATE  = 
ORIGINATOR     = 

OBJECT_NAME    = SHENZHOU-21 (SZ-21)
OBJECT_ID      = 2025-246A
CENTER_NAME    = EARTH
REF_FRAME      = TEME
TIME_SYSTEM    = UTC
MEAN_ELEMENT_THEORY = SGP/SGP4

EPOCH          = 2025-11-12T22:14:43.042848
MEAN_MOTION    = 15.61060096
ECCENTRICITY   = .00042148
INCLINATION    = 41.4653
RA_OF_ASC_NODE = 197.6593
ARG_OF_PERICENTER = 14.6230
MEAN_ANOMALY   = 345.4730

EPHEMERIS_TYPE = 0
CLASSIFICATION_TYPE = U
NORAD_CAT_ID   = 66263
ELEMENT_SET_NO = 999
REV_AT_EPOCH   = 25813
BSTAR          = .61205692E-3
MEAN_MOTION_DOT = .53056E-3
MEAN_MOTION_DDOT = 0

